start=new Date('2022-11-23T00:00:00.000Z').valueOf();
sats=[{"OBJECT_TYPE":"PAYLOAD","GP_ID":"218505991","ELEMENT_SET_NO":"999","APOAPSIS":"419.784","NORAD_CAT_ID":"53992","RA_OF_ASC_NODE":"215.9226","REF_FRAME":"TEME","SITE":"AFWTR","CLASSIFICATION_TYPE":"U","FILE":"3667517","ARG_OF_PERICENTER":"111.0599","OBJECT_ID":"2022-125AE","TLE_LINE2":"2 53992  53.2174 215.9226 0001246 111.0599 160.4906 15.49244399  1308","EPHEMERIS_TYPE":"0","MEAN_MOTION_DOT":"-0.01067889","TIME_SYSTEM":"UTC","ECCENTRICITY":"0.00012460","MEAN_ELEMENT_THEORY":"SGP4","EPOCH":"2022-11-22T22:00:00.999936","RCS_SIZE":"LARGE","MEAN_MOTION":"15.49244399","COUNTRY_CODE":"US","OBJECT_NAME":"STARLINK-5108","LAUNCH_DATE":"2022-10-05","TLE_LINE1":"1 53992U 22125AE  22326.91667824 -.01067889  00000-0 -21217-1 0  9993","SEMIMAJOR_AXIS":"6797.072","PERIAPSIS":"418.090","DECAY_DATE":null,"BSTAR":"-0.02121700000000","MEAN_MOTION_DDOT":"0.0000000000000","INCLINATION":"53.2174","REV_AT_EPOCH":"130","PERIOD":"92.949","MEAN_ANOMALY":"160.4906","CENTER_NAME":"EARTH"},{"ARG_OF_PERICENTER":"50.0157","EPHEMERIS_TYPE":"0","OBJECT_ID":"2022-125AF","TLE_LINE2":"2 53993  53.2171 214.3555 0001390  50.0157 277.8584 15.66591668  1304","MEAN_MOTION_DOT":"-0.00959079","MEAN_ELEMENT_THEORY":"SGP4","ECCENTRICITY":"0.00013900","TIME_SYSTEM":"UTC","APOAPSIS":"369.605","OBJECT_TYPE":"PAYLOAD","ELEMENT_SET_NO":"999","GP_ID":"218506484","RA_OF_ASC_NODE":"214.3555","NORAD_CAT_ID":"53993","SITE":"AFWTR","CLASSIFICATION_TYPE":"U","FILE":"3667517","REF_FRAME":"TEME","COUNTRY_CODE":"US","LAUNCH_DATE":"2022-10-05","OBJECT_NAME":"STARLINK-5121","TLE_LINE1":"1 53993U 22125AF  22326.91667824 -.00959079  00000-0 -99188-2 0  9997","DECAY_DATE":null,"SEMIMAJOR_AXIS":"6746.802","PERIAPSIS":"367.729","MEAN_ANOMALY":"277.8584","PERIOD":"91.919","CENTER_NAME":"EARTH","BSTAR":"-0.00991880000000","MEAN_MOTION_DDOT":"0.0000000000000","REV_AT_EPOCH":"130","INCLINATION":"53.2171","EPOCH":"2022-11-22T22:00:00.999936","MEAN_MOTION":"15.66591668","RCS_SIZE":"LARGE"},{"EPOCH":"2022-11-22T22:00:00.999936","RCS_SIZE":"LARGE","MEAN_MOTION":"15.49769457","SEMIMAJOR_AXIS":"6795.537","PERIAPSIS":"416.493","DECAY_DATE":null,"BSTAR":"-0.01086200000000","MEAN_MOTION_DDOT":"0.0000000000000","REV_AT_EPOCH":"130","INCLINATION":"53.2176","MEAN_ANOMALY":"163.9738","PERIOD":"92.917","CENTER_NAME":"EARTH","COUNTRY_CODE":"US","LAUNCH_DATE":"2022-10-05","OBJECT_NAME":"STARLINK-5125","TLE_LINE1":"1 53994U 22125AG  22326.91667824 -.00571574  00000-0 -10862-1 0  9999","REF_FRAME":"TEME","SITE":"AFWTR","CLASSIFICATION_TYPE":"U","FILE":"3667517","OBJECT_TYPE":"PAYLOAD","ELEMENT_SET_NO":"999","GP_ID":"218506975","APOAPSIS":"418.311","NORAD_CAT_ID":"53994","RA_OF_ASC_NODE":"215.9144","MEAN_MOTION_DOT":"-0.00571574","TIME_SYSTEM":"UTC","ECCENTRICITY":"0.00013380","MEAN_ELEMENT_THEORY":"SGP4","ARG_OF_PERICENTER":"111.8527","OBJECT_ID":"2022-125AG","TLE_LINE2":"2 53994  53.2176 215.9144 0001338 111.8527 163.9738 15.49769457  1300","EPHEMERIS_TYPE":"0"},{"RA_OF_ASC_NODE":"215.9194","NORAD_CAT_ID":"53995","APOAPSIS":"419.131","GP_ID":"218506155","ELEMENT_SET_NO":"999","OBJECT_TYPE":"PAYLOAD","FILE":"3667517","SITE":"AFWTR","CLASSIFICATION_TYPE":"U","REF_FRAME":"TEME","EPHEMERIS_TYPE":"0","TLE_LINE2":"2 53995  53.2173 215.9194 0001257 107.3650 165.7108 15.49470203  1309","OBJECT_ID":"2022-125AH","ARG_OF_PERICENTER":"107.3650","MEAN_ELEMENT_THEORY":"SGP4","ECCENTRICITY":"0.00012570","TIME_SYSTEM":"UTC","MEAN_MOTION_DOT":"-0.00956169","MEAN_MOTION":"15.49470203","RCS_SIZE":"LARGE","EPOCH":"2022-11-22T22:00:00.999936","TLE_LINE1":"1 53995U 22125AH  22326.91667824 -.00956169  00000-0 -18649-1 0  9998","LAUNCH_DATE":"2022-10-05","OBJECT_NAME":"STARLINK-5097","COUNTRY_CODE":"US","CENTER_NAME":"EARTH","PERIOD":"92.935","MEAN_ANOMALY":"165.7108","BSTAR":"-0.01864900000000","MEAN_MOTION_DDOT":"0.0000000000000","REV_AT_EPOCH":"130","INCLINATION":"53.2173","DECAY_DATE":null,"PERIAPSIS":"417.423","SEMIMAJOR_AXIS":"6796.412"},{"ECCENTRICITY":"0.00012000","MEAN_ELEMENT_THEORY":"SGP4","TIME_SYSTEM":"UTC","MEAN_MOTION_DOT":"-0.00661947","EPHEMERIS_TYPE":"0","TLE_LINE2":"2 53996  53.2172 215.9136 0001200  60.4142 216.6150 15.50030372  1302","OBJECT_ID":"2022-125AJ","ARG_OF_PERICENTER":"60.4142","FILE":"3667517","SITE":"AFWTR","CLASSIFICATION_TYPE":"U","REF_FRAME":"TEME","RA_OF_ASC_NODE":"215.9136","NORAD_CAT_ID":"53996","APOAPSIS":"417.455","ELEMENT_SET_NO":"999","GP_ID":"218506319","OBJECT_TYPE":"PAYLOAD","CENTER_NAME":"EARTH","PERIOD":"92.901","MEAN_ANOMALY":"216.6150","BSTAR":"-0.01260900000000","MEAN_MOTION_DDOT":"0.0000000000000","REV_AT_EPOCH":"130","INCLINATION":"53.2172","DECAY_DATE":null,"PERIAPSIS":"415.824","SEMIMAJOR_AXIS":"6794.774","TLE_LINE1":"1 53996U 22125AJ  22326.91667824 -.00661947  00000-0 -12609-1 0  9996","OBJECT_NAME":"STARLINK-5131","LAUNCH_DATE":"2022-10-05","COUNTRY_CODE":"US","RCS_SIZE":"LARGE","MEAN_MOTION":"15.50030372","EPOCH":"2022-11-22T22:00:00.999936"},{"RA_OF_ASC_NODE":"214.2868","NORAD_CAT_ID":"53997","APOAPSIS":"351.391","GP_ID":"218506812","ELEMENT_SET_NO":"999","OBJECT_TYPE":"PAYLOAD","FILE":"3667517","SITE":"AFWTR","CLASSIFICATION_TYPE":"U","REF_FRAME":"TEME","EPHEMERIS_TYPE":"0","TLE_LINE2":"2 53997  53.2143 214.2868 0002632  12.9047 358.9349 15.73249204  1302","OBJECT_ID":"2022-125AK","ARG_OF_PERICENTER":"12.9047","ECCENTRICITY":"0.00026320","MEAN_ELEMENT_THEORY":"SGP4","TIME_SYSTEM":"UTC","MEAN_MOTION_DOT":"-0.00087225","MEAN_MOTION":"15.73249204","RCS_SIZE":"LARGE","EPOCH":"2022-11-22T22:00:00.999936","TLE_LINE1":"1 53997U 22125AK  22326.91667824 -.00087225  00000-0 -62206-3 0  9998","LAUNCH_DATE":"2022-10-05","OBJECT_NAME":"STARLINK-5130","COUNTRY_CODE":"US","CENTER_NAME":"EARTH","MEAN_ANOMALY":"358.9349","PERIOD":"91.530","INCLINATION":"53.2143","MEAN_MOTION_DDOT":"0.0000000000000","BSTAR":"-0.00062206000000","REV_AT_EPOCH":"130","DECAY_DATE":null,"PERIAPSIS":"347.849","SEMIMAJOR_AXIS":"6727.755"},{"REF_FRAME":"TEME","FILE":"3667517","SITE":"AFWTR","CLASSIFICATION_TYPE":"U","NORAD_CAT_ID":"53998","RA_OF_ASC_NODE":"215.9094","GP_ID":"218506649","ELEMENT_SET_NO":"999","OBJECT_TYPE":"PAYLOAD","APOAPSIS":"417.414","TIME_SYSTEM":"UTC","ECCENTRICITY":"0.00009110","MEAN_ELEMENT_THEORY":"SGP4","MEAN_MOTION_DOT":"-0.00244477","TLE_LINE2":"2 53998  53.2155 215.9094 0000911 117.8391 161.7921 15.49977114  1307","OBJECT_ID":"2022-125AL","EPHEMERIS_TYPE":"0","ARG_OF_PERICENTER":"117.8391","RCS_SIZE":"LARGE","MEAN_MOTION":"15.49977114","EPOCH":"2022-11-22T22:00:00.999936","REV_AT_EPOCH":"130","MEAN_MOTION_DDOT":"0.0000000000000","BSTAR":"-0.00442090000000","INCLINATION":"53.2155","CENTER_NAME":"EARTH","PERIOD":"92.905","MEAN_ANOMALY":"161.7921","PERIAPSIS":"416.176","SEMIMAJOR_AXIS":"6794.930","DECAY_DATE":null,"TLE_LINE1":"1 53998U 22125AL  22326.91667824 -.00244477  00000-0 -44209-2 0  9995","OBJECT_NAME":"STARLINK-5128","LAUNCH_DATE":"2022-10-05","COUNTRY_CODE":"US"},{"EPHEMERIS_TYPE":"0","TLE_LINE2":"2 53999  53.2174 215.9169 0001388 131.8580 142.6086 15.49684192  1308","OBJECT_ID":"2022-125AM","ARG_OF_PERICENTER":"131.8580","MEAN_ELEMENT_THEORY":"SGP4","ECCENTRICITY":"0.00013880","TIME_SYSTEM":"UTC","MEAN_MOTION_DOT":"-0.00817291","RA_OF_ASC_NODE":"215.9169","NORAD_CAT_ID":"53999","APOAPSIS":"418.594","ELEMENT_SET_NO":"999","GP_ID":"218505828","OBJECT_TYPE":"PAYLOAD","FILE":"3667517","CLASSIFICATION_TYPE":"U","SITE":"AFWTR","REF_FRAME":"TEME","TLE_LINE1":"1 53999U 22125AM  22326.91667824 -.00817291  00000-0 -15827-1 0  9999","OBJECT_NAME":"STARLINK-5079","LAUNCH_DATE":"2022-10-05","COUNTRY_CODE":"US","CENTER_NAME":"EARTH","PERIOD":"92.922","MEAN_ANOMALY":"142.6086","BSTAR":"-0.01582700000000","MEAN_MOTION_DDOT":"0.0000000000000","REV_AT_EPOCH":"130","INCLINATION":"53.2174","DECAY_DATE":null,"PERIAPSIS":"416.708","SEMIMAJOR_AXIS":"6795.786","RCS_SIZE":"LARGE","MEAN_MOTION":"15.49684192","EPOCH":"2022-11-22T22:00:00.999936"},{"MEAN_MOTION":"15.73249392","RCS_SIZE":"LARGE","EPOCH":"2022-11-22T22:00:00.999936","OBJECT_NAME":"STARLINK-5088","LAUNCH_DATE":"2022-10-05","TLE_LINE1":"1 54000U 22125AN  22326.91667824 -.00077197  00000-0 -54946-3 0  9993","COUNTRY_CODE":"US","BSTAR":"-0.00054946000000","MEAN_MOTION_DDOT":"0.0000000000000","REV_AT_EPOCH":"130","INCLINATION":"53.2152","MEAN_ANOMALY":"352.3154","PERIOD":"91.530","CENTER_NAME":"EARTH","SEMIMAJOR_AXIS":"6727.754","PERIAPSIS":"348.380","DECAY_DATE":null,"NORAD_CAT_ID":"54000","RA_OF_ASC_NODE":"214.2824","OBJECT_TYPE":"PAYLOAD","ELEMENT_SET_NO":"999","GP_ID":"218505992","APOAPSIS":"350.859","REF_FRAME":"TEME","SITE":"AFWTR","CLASSIFICATION_TYPE":"U","FILE":"3667517","OBJECT_ID":"2022-125AN","TLE_LINE2":"2 54000  53.2152 214.2824 0001842  23.1485 352.3154 15.73249392  1302","EPHEMERIS_TYPE":"0","ARG_OF_PERICENTER":"23.1485","TIME_SYSTEM":"UTC","ECCENTRICITY":"0.00018420","MEAN_ELEMENT_THEORY":"SGP4","MEAN_MOTION_DOT":"-0.00077197"},{"DECAY_DATE":null,"PERIAPSIS":"415.939","SEMIMAJOR_AXIS":"6794.867","CENTER_NAME":"EARTH","PERIOD":"92.903","MEAN_ANOMALY":"162.9982","BSTAR":"-0.00447270000000","MEAN_MOTION_DDOT":"0.0000000000000","REV_AT_EPOCH":"130","INCLINATION":"53.2165","COUNTRY_CODE":"US","TLE_LINE1":"1 54001U 22125AP  22326.91667824 -.00247440  00000-0 -44727-2 0  9999","LAUNCH_DATE":"2022-10-05","OBJECT_NAME":"STARLINK-5105","EPOCH":"2022-11-22T22:00:00.999936","MEAN_MOTION":"15.49998726","RCS_SIZE":"LARGE","MEAN_MOTION_DOT":"-0.00247440","MEAN_ELEMENT_THEORY":"SGP4","ECCENTRICITY":"0.00011670","TIME_SYSTEM":"UTC","ARG_OF_PERICENTER":"117.9381","EPHEMERIS_TYPE":"0","TLE_LINE2":"2 54001  53.2165 215.9076 0001167 117.9381 162.9982 15.49998726  1300","OBJECT_ID":"2022-125AP","FILE":"3667517","CLASSIFICATION_TYPE":"U","SITE":"AFWTR","REF_FRAME":"TEME","APOAPSIS":"417.525","GP_ID":"218506485","ELEMENT_SET_NO":"999","OBJECT_TYPE":"PAYLOAD","RA_OF_ASC_NODE":"215.9076","NORAD_CAT_ID":"54001"}];
